[{"OBJECT_NAME":"STARLINK-1593","OBJECT_ID":"2020-057C","EPOCH":"2026-03-10T00:00:02.999808","MEAN_MOTION":15.74657731,"ECCENTRICITY":0.00026845,"INCLINATION":53.0438,"RA_OF_ASC_NODE":268.8311,"ARG_OF_PERICENTER":147.5377,"MEAN_ANOMALY":277.5638,"EPHEMERIS_TYPE":0,"CLASSIFICATION_TYPE":"U","NORAD_CAT_ID":46119,"ELEMENT_SET_NO":999,"REV_AT_EPOCH":596,"BSTAR":0.0012691953,"MEAN_MOTION_DOT":0.00193505,"MEAN_MOTION_DDOT":0},{"OBJECT_NAME":"STARLINK-36613","OBJECT_ID":"2026-016T","EPOCH":"2026-03-09T17:20:21.607584","MEAN_MOTION":15.75200455,"ECCENTRICITY":0.00016368,"INCLINATION":97.2844,"RA_OF_ASC_NODE":129.2902,"ARG_OF_PERICENTER":76.8046,"MEAN_ANOMALY":283.3402,"EPHEMERIS_TYPE":0,"CLASSIFICATION_TYPE":"U","NORAD_CAT_ID":67578,"ELEMENT_SET_NO":999,"REV_AT_EPOCH":681,"BSTAR":0.0014689462,"MEAN_MOTION_DOT":0.00224945,"MEAN_MOTION_DDOT":0}]
